[{"OBJECT_NAME":"ONEWEB-0543","OBJECT_ID":"2023-004D","EPOCH":"2026-03-03T20:20:02.661792","MEAN_MOTION":13.1868626,"ECCENTRICITY":0.0001681,"INCLINATION":87.9229,"RA_OF_ASC_NODE":356.3991,"ARG_OF_PERICENTER":88.2914,"MEAN_ANOMALY":271.841,"EPHEMERIS_TYPE":0,"CLASSIFICATION_TYPE":"U","NORAD_CAT_ID":55143,"ELEMENT_SET_NO":999,"REV_AT_EPOCH":15581,"BSTAR":0.0001003,"MEAN_MOTION_DOT":5.2e-7,"MEAN_MOTION_DDOT":0},{"OBJECT_NAME":"ONEWEB-0544","OBJECT_ID":"2023-004E","EPOCH":"2026-03-03T20:10:32.466720","MEAN_MOTION":13.18686687,"ECCENTRICITY":0.0002009,"INCLINATION":87.9239,"RA_OF_ASC_NODE":356.3966,"ARG_OF_PERICENTER":85.0907,"MEAN_ANOMALY":275.0455,"EPHEMERIS_TYPE":0,"CLASSIFICATION_TYPE":"U","NORAD_CAT_ID":55144,"ELEMENT_SET_NO":999,"REV_AT_EPOCH":15581,"BSTAR":0.00020287,"MEAN_MOTION_DOT":9.3e-7,"MEAN_MOTION_DDOT":0},{"OBJECT_NAME":"ONEWEB-0560","OBJECT_ID":"2023-004F","EPOCH":"2026-03-03T20:01:02.414208","MEAN_MOTION":13.18685998,"ECCENTRICITY":0.0001936,"INCLINATION":87.924,"RA_OF_ASC_NODE":356.3878,"ARG_OF_PERICENTER":85.2446,"MEAN_ANOMALY":274.8907,"EPHEMERIS_TYPE":0,"CLASSIFICATION_TYPE":"U","NORAD_CAT_ID":55145,"ELEMENT_SET_NO":999,"REV_AT_EPOCH":15582,"BSTAR":9.109e-5,"MEAN_MOTION_DOT":4.9e-7,"MEAN_MOTION_DDOT":0},{"OBJECT_NAME":"ONEWEB-0565","OBJECT_ID":"2023-004G","EPOCH":"2026-03-03T19:51:32.404032","MEAN_MOTION":13.18685897,"ECCENTRICITY":0.0002311,"INCLINATION":87.9229,"RA_OF_ASC_NODE":356.427,"ARG_OF_PERICENTER":79.8405,"MEAN_ANOMALY":280.2988,"EPHEMERIS_TYPE":0,"CLASSIFICATION_TYPE":"U","NORAD_CAT_ID":55146,"ELEMENT_SET_NO":999,"REV_AT_EPOCH":15581,"BSTAR":0.00016907,"MEAN_MOTION_DOT":8.0e-7,"MEAN_MOTION_DDOT":0},{"OBJECT_NAME":"ONEWEB-0567","OBJECT_ID":"2023-004H","EPOCH":"2026-03-03T19:42:02.273760","MEAN_MOTION":13.18686532,"ECCENTRICITY":0.0002225,"INCLINATION":87.924,"RA_OF_ASC_NODE":356.402,"ARG_OF_PERICENTER":84.5364,"MEAN_ANOMALY":275.6022,"EPHEMERIS_TYPE":0,"CLASSIFICATION_TYPE":"U","NORAD_CAT_ID":55147,"ELEMENT_SET_NO":999,"REV_AT_EPOCH":15581,"BSTAR":0.0001544,"MEAN_MOTION_DOT":7.4e-7,"MEAN_MOTION_DDOT":0},{"OBJECT_NAME":"ONEWEB-0569","OBJECT_ID":"2023-004J","EPOCH":"2026-03-03T19:21:53.706240","MEAN_MOTION":13.13470195,"ECCENTRICITY":0.000239,"INCLINATION":87.9052,"RA_OF_ASC_NODE":341.1708,"ARG_OF_PERICENTER":98.5744,"MEAN_ANOMALY":261.5656,"EPHEMERIS_TYPE":0,"CLASSIFICATION_TYPE":"U","NORAD_CAT_ID":55148,"ELEMENT_SET_NO":999,"REV_AT_EPOCH":15634,"BSTAR":-0.00045174,"MEAN_MOTION_DOT":-1.52e-6,"MEAN_MOTION_DDOT":0},{"OBJECT_NAME":"ONEWEB-0570","OBJECT_ID":"2023-004K","EPOCH":"2026-03-03T19:27:46.740960","MEAN_MOTION":13.18687143,"ECCENTRICITY":0.000214,"INCLINATION":87.9239,"RA_OF_ASC_NODE":356.4026,"ARG_OF_PERICENTER":68.5219,"MEAN_ANOMALY":291.6141,"EPHEMERIS_TYPE":0,"CLASSIFICATION_TYPE":"U","NORAD_CAT_ID":55149,"ELEMENT_SET_NO":999,"REV_AT_EPOCH":15580,"BSTAR":0.00010943,"MEAN_MOTION_DOT":5.6e-7,"MEAN_MOTION_DDOT":0},{"OBJECT_NAME":"ONEWEB-0571","OBJECT_ID":"2023-004L","EPOCH":"2026-03-03T19:18:15.791616","MEAN_MOTION":13.18691903,"ECCENTRICITY":0.0003151,"INCLINATION":87.924,"RA_OF_ASC_NODE":356.4019,"ARG_OF_PERICENTER":89.5663,"MEAN_ANOMALY":270.583,"EPHEMERIS_TYPE":0,"CLASSIFICATION_TYPE":"U","NORAD_CAT_ID":55150,"ELEMENT_SET_NO":999,"REV_AT_EPOCH":15581,"BSTAR":-0.0029742,"MEAN_MOTION_DOT":-1.16e-5,"MEAN_MOTION_DDOT":0},{"OBJECT_NAME":"ONEWEB-0572","OBJECT_ID":"2023-004M","EPOCH":"2026-03-03T19:35:18.131712","MEAN_MOTION":13.17650574,"ECCENTRICITY":0.0002076,"INCLINATION":87.9139,"RA_OF_ASC_NODE":26.7918,"ARG_OF_PERICENTER":81.4978,"MEAN_ANOMALY":278.6389,"EPHEMERIS_TYPE":0,"CLASSIFICATION_TYPE":"U","NORAD_CAT_ID":55151,"ELEMENT_SET_NO":999,"REV_AT_EPOCH":15360,"BSTAR":4.4006e-5,"MEAN_MOTION_DOT":3.0e-7,"MEAN_MOTION_DDOT":0},{"OBJECT_NAME":"ONEWEB-0573","OBJECT_ID":"2023-004N","EPOCH":"2026-03-03T19:08:47.396256","MEAN_MOTION":13.18685941,"ECCENTRICITY":0.00026119,"INCLINATION":87.9237,"RA_OF_ASC_NODE":356.4063,"ARG_OF_PERICENTER":75.439,"MEAN_ANOMALY":284.7032,"EPHEMERIS_TYPE":0,"CLASSIFICATION_TYPE":"U","NORAD_CAT_ID":55152,"ELEMENT_SET_NO":999,"REV_AT_EPOCH":15580,"BSTAR":-3.9171511e-5,"MEAN_MOTION_DOT":-3.0e-8,"MEAN_MOTION_DDOT":0},{"OBJECT_NAME":"ONEWEB-0588","OBJECT_ID":"2023-004P","EPOCH":"2026-03-03T18:59:15.620928","MEAN_MOTION":13.18684552,"ECCENTRICITY":0.00021211,"INCLINATION":87.924,"RA_OF_ASC_NODE":356.4076,"ARG_OF_PERICENTER":72.7368,"MEAN_ANOMALY":287.3996,"EPHEMERIS_TYPE":0,"CLASSIFICATION_TYPE":"U","NORAD_CAT_ID":55153,"ELEMENT_SET_NO":999,"REV_AT_EPOCH":15580,"BSTAR":0.00020023022,"MEAN_MOTION_DOT":9.2e-7,"MEAN_MOTION_DDOT":0},{"OBJECT_NAME":"ONEWEB-0598","OBJECT_ID":"2023-004Q","EPOCH":"2026-03-04T00:33:33.849216","MEAN_MOTION":13.11413375,"ECCENTRICITY":0.0002378,"INCLINATION":87.8851,"RA_OF_ASC_NODE":41.9828,"ARG_OF_PERICENTER":95.548,"MEAN_ANOMALY":264.5919,"EPHEMERIS_TYPE":0,"CLASSIFICATION_TYPE":"U","NORAD_CAT_ID":55154,"ELEMENT_SET_NO":999,"REV_AT_EPOCH":15211,"BSTAR":1.359e-5,"MEAN_MOTION_DOT":1.8e-7,"MEAN_MOTION_DDOT":0},{"OBJECT_NAME":"ONEWEB-0599","OBJECT_ID":"2023-004R","EPOCH":"2026-03-03T20:28:45.931296","MEAN_MOTION":13.17647641,"ECCENTRICITY":0.0001849,"INCLINATION":87.9136,"RA_OF_ASC_NODE":26.7831,"ARG_OF_PERICENTER":88.9455,"MEAN_ANOMALY":271.1889,"EPHEMERIS_TYPE":0,"CLASSIFICATION_TYPE":"U","NORAD_CAT_ID":55155,"ELEMENT_SET_NO":999,"REV_AT_EPOCH":15361,"BSTAR":4.239e-5,"MEAN_MOTION_DOT":2.9e-7,"MEAN_MOTION_DDOT":0},{"OBJECT_NAME":"ONEWEB-0614","OBJECT_ID":"2023-004S","EPOCH":"2026-03-04T00:26:14.459424","MEAN_MOTION":13.11413259,"ECCENTRICITY":0.0001867,"INCLINATION":87.8849,"RA_OF_ASC_NODE":41.9923,"ARG_OF_PERICENTER":73.5449,"MEAN_ANOMALY":286.5884,"EPHEMERIS_TYPE":0,"CLASSIFICATION_TYPE":"U","NORAD_CAT_ID":55156,"ELEMENT_SET_NO":999,"REV_AT_EPOCH":15205,"BSTAR":0.00052853,"MEAN_MOTION_DOT":2.0e-6,"MEAN_MOTION_DDOT":0},{"OBJECT_NAME":"ONEWEB-0616","OBJECT_ID":"2023-004T","EPOCH":"2026-03-03T19:40:10.867008","MEAN_MOTION":13.17649459,"ECCENTRICITY":0.0001567,"INCLINATION":87.9149,"RA_OF_ASC_NODE":26.7899,"ARG_OF_PERICENTER":113.4788,"MEAN_ANOMALY":246.6509,"EPHEMERIS_TYPE":0,"CLASSIFICATION_TYPE":"U","NORAD_CAT_ID":55157,"ELEMENT_SET_NO":999,"REV_AT_EPOCH":15382,"BSTAR":0.00015614,"MEAN_MOTION_DOT":7.3e-7,"MEAN_MOTION_DDOT":0},{"OBJECT_NAME":"ONEWEB-0617","OBJECT_ID":"2023-004U","EPOCH":"2026-03-03T20:29:25.483488","MEAN_MOTION":13.11414903,"ECCENTRICITY":0.0002082,"INCLINATION":87.8857,"RA_OF_ASC_NODE":42.0081,"ARG_OF_PERICENTER":75.132,"MEAN_ANOMALY":285.0039,"EPHEMERIS_TYPE":0,"CLASSIFICATION_TYPE":"U","NORAD_CAT_ID":55158,"ELEMENT_SET_NO":999,"REV_AT_EPOCH":15205,"BSTAR":0.0014526,"MEAN_MOTION_DOT":5.28e-6,"MEAN_MOTION_DDOT":0},{"OBJECT_NAME":"ONEWEB-0618","OBJECT_ID":"2023-004V","EPOCH":"2026-03-03T11:22:18.680448","MEAN_MOTION":15.11858912,"ECCENTRICITY":0.00117298,"INCLINATION":86.9053,"RA_OF_ASC_NODE":220.4984,"ARG_OF_PERICENTER":335.7358,"MEAN_ANOMALY":24.3328,"EPHEMERIS_TYPE":0,"CLASSIFICATION_TYPE":"U","NORAD_CAT_ID":55159,"ELEMENT_SET_NO":999,"REV_AT_EPOCH":16628,"BSTAR":0.00042342158,"MEAN_MOTION_DOT":7.281e-5,"MEAN_MOTION_DDOT":0},{"OBJECT_NAME":"ONEWEB-0619","OBJECT_ID":"2023-004W","EPOCH":"2026-03-03T20:26:21.462720","MEAN_MOTION":13.1764827,"ECCENTRICITY":0.0001463,"INCLINATION":87.9147,"RA_OF_ASC_NODE":26.7567,"ARG_OF_PERICENTER":74.9051,"MEAN_ANOMALY":285.2242,"EPHEMERIS_TYPE":0,"CLASSIFICATION_TYPE":"U","NORAD_CAT_ID":55160,"ELEMENT_SET_NO":999,"REV_AT_EPOCH":15372,"BSTAR":3.602e-5,"MEAN_MOTION_DOT":2.7e-7,"MEAN_MOTION_DDOT":0},{"OBJECT_NAME":"ONEWEB-0620","OBJECT_ID":"2023-004X","EPOCH":"2026-03-03T22:11:58.528608","MEAN_MOTION":13.11416612,"ECCENTRICITY":0.0002157,"INCLINATION":87.8851,"RA_OF_ASC_NODE":42.0104,"ARG_OF_PERICENTER":84.7794,"MEAN_ANOMALY":275.358,"EPHEMERIS_TYPE":0,"CLASSIFICATION_TYPE":"U","NORAD_CAT_ID":55161,"ELEMENT_SET_NO":999,"REV_AT_EPOCH":15203,"BSTAR":0.0015443,"MEAN_MOTION_DOT":5.6e-6,"MEAN_MOTION_DDOT":0},{"OBJECT_NAME":"ONEWEB-0621","OBJECT_ID":"2023-004Y","EPOCH":"2026-03-03T11:51:49.428576","MEAN_MOTION":13.11414986,"ECCENTRICITY":0.00017678,"INCLINATION":87.886,"RA_OF_ASC_NODE":42.0754,"ARG_OF_PERICENTER":76.9572,"MEAN_ANOMALY":283.1753,"EPHEMERIS_TYPE":0,"CLASSIFICATION_TYPE":"U","NORAD_CAT_ID":55162,"ELEMENT_SET_NO":999,"REV_AT_EPOCH":15195,"BSTAR":-0.0010133119,"MEAN_MOTION_DOT":-3.46e-6,"MEAN_MOTION_DDOT":0},{"OBJECT_NAME":"ONEWEB-0622","OBJECT_ID":"2023-004Z","EPOCH":"2026-03-03T11:59:08.062368","MEAN_MOTION":13.11416857,"ECCENTRICITY":0.00022645,"INCLINATION":87.8854,"RA_OF_ASC_NODE":42.0767,"ARG_OF_PERICENTER":66.8849,"MEAN_ANOMALY":293.2518,"EPHEMERIS_TYPE":0,"CLASSIFICATION_TYPE":"U","NORAD_CAT_ID":55163,"ELEMENT_SET_NO":999,"REV_AT_EPOCH":15194,"BSTAR":-0.0013221425,"MEAN_MOTION_DOT":-4.56e-6,"MEAN_MOTION_DDOT":0},{"OBJECT_NAME":"ONEWEB-0623","OBJECT_ID":"2023-004AA","EPOCH":"2026-03-03T20:19:04.064448","MEAN_MOTION":13.17649019,"ECCENTRICITY":0.0001839,"INCLINATION":87.914,"RA_OF_ASC_NODE":26.7996,"ARG_OF_PERICENTER":56.4888,"MEAN_ANOMALY":303.6419,"EPHEMERIS_TYPE":0,"CLASSIFICATION_TYPE":"U","NORAD_CAT_ID":55164,"ELEMENT_SET_NO":999,"REV_AT_EPOCH":15371,"BSTAR":5.6253e-5,"MEAN_MOTION_DOT":3.5e-7,"MEAN_MOTION_DDOT":0},{"OBJECT_NAME":"ONEWEB-0624","OBJECT_ID":"2023-004AB","EPOCH":"2026-03-03T19:08:38.142816","MEAN_MOTION":13.12922494,"ECCENTRICITY":0.0001791,"INCLINATION":87.8993,"RA_OF_ASC_NODE":11.5212,"ARG_OF_PERICENTER":73.4232,"MEAN_ANOMALY":286.7093,"EPHEMERIS_TYPE":0,"CLASSIFICATION_TYPE":"U","NORAD_CAT_ID":55165,"ELEMENT_SET_NO":999,"REV_AT_EPOCH":15424,"BSTAR":-0.00089176,"MEAN_MOTION_DOT":-3.1e-6,"MEAN_MOTION_DDOT":0},{"OBJECT_NAME":"ONEWEB-0625","OBJECT_ID":"2023-004AC","EPOCH":"2026-03-03T20:04:29.375904","MEAN_MOTION":13.17648976,"ECCENTRICITY":0.0001732,"INCLINATION":87.914,"RA_OF_ASC_NODE":26.7955,"ARG_OF_PERICENTER":86.869,"MEAN_ANOMALY":273.264,"EPHEMERIS_TYPE":0,"CLASSIFICATION_TYPE":"U","NORAD_CAT_ID":55166,"ELEMENT_SET_NO":999,"REV_AT_EPOCH":15370,"BSTAR":0.00013457,"MEAN_MOTION_DOT":6.5e-7,"MEAN_MOTION_DDOT":0}]
